SWARM A                 
1 39452U 13067B   26198.66854757  .00005677  00000+0  95413-4 0  9994
2 39452  87.3296  44.9058 0003335  92.5958 267.5685 15.51487379710975
SWARM C                 
1 39453U 13067C   26198.66845542  .00005633  00000+0  94670-4 0  9993
2 39453  87.3296  43.4867 0003329  92.7113 267.4530 15.51486640710930
BRITE-CA1 (TORONTO)     
1 40020U 14033L   26197.93307810  .00000506  00000+0  83590-4 0  9992
2 40020  97.9774 326.3188 0078575 180.6925 179.4187 14.72724463646592
OCO 2                   
1 40059U 14035A   26198.64451953  .00000162  00000+0  45988-4 0  9990
2 40059  98.2020 139.4752 0001430  81.0934 279.0427 14.57133225640481
BRITE-PL2 (HEWELIUSZ)   
1 40119U 14049B   26197.89668719  .00000489  00000+0  50495-4 0  9999
2 40119  97.9120 310.1310 0014171  16.6624 343.5058 14.94689258645888
MMS 1                   
1 40482U 15011A   26198.75003471 -.00001318  00000+0  00000+0 0  9991
2 40482  72.4604 348.4245 8302385 168.1034 176.1164  0.28341066  1361
MMS 2                   
1 40483U 15011B   26198.75003471 -.00001319  00000+0  00000+0 0  9993
2 40483  72.4643 348.4235 8305198 168.1062 176.1034  0.28341010  1365
MMS 3                   
1 40484U 15011C   26198.75003471 -.00001318  00000+0  00000+0 0  9993
2 40484  72.4640 348.4353 8303566 168.1139 176.0774  0.28341017  1330
MMS 4                   
1 40485U 15011D   26198.75003471 -.00001319  00000+0  00000+0 0  9995
2 40485  72.4587 348.4189 8303495 168.1228 176.0786  0.28340728  1362
ASTROSAT                
1 40930U 15052A   26198.63312885  .00001052  00000+0  46524-4 0  9993
2 40930   5.9972 296.2026 0007406 111.4569 248.6349 14.82553975584351
DAMPE                   
1 41173U 15078A   26198.69447998  .00000375  00000+0  15172-4 0  9993
2 41173  97.4559 204.3136 0011331 336.4456  23.6265 15.30855988589217
PISAT                   
1 41784U 16059B   26198.45494007  .00000424  00000+0  79783-4 0  9991
2 41784  97.8192 197.6092 0030507 107.9355 252.5181 14.69031877524181
HXMT (HUIYAN)           
1 42758U 17034A   26198.71918258  .00001998  00000+0  10499-3 0  9990
2 42758  43.0154  13.0008 0031985 336.5508  23.3881 15.18700947502300
FLYING LAPTOP           
1 42831U 17042G   26198.71276133  .00002081  00000+0  16558-3 0  9996
2 42831  97.4819 353.0993 0019601  24.4623 335.7527 15.01323225491031
ZHANGHENG 1-01 (CSES-1) 
1 43194U 18015C   26198.73337363  .00003681  00000+0  17060-3 0  9991
2 43194  97.6897   5.0024 0016613 156.4639 203.7360 15.20627192469286
SALSAT                  
1 46495U 20068K   26197.96833821  .00003909  00000+0  13663-3 0  9991
2 46495  97.8858 202.8562 0009384 186.4299 173.6821 15.30186484319914
IXPE                    
1 49954U 21121A   26198.75003471  .00005458  00000+0  26752-3 0  9997
2 49954   0.2300  86.1062 0006762 180.9842  97.7010 15.10500575  5800
SMILE                   
1 69123U 26109A   26194.95939329  .00000936  00000+0  00000+0 0  9996
2 69123  70.0512 206.6048 8313707 286.9544   0.1879  0.47500629    65
