OBJECT_NAME,OBJECT_ID,EPOCH,MEAN_MOTION,ECCENTRICITY,INCLINATION,RA_OF_ASC_NODE,ARG_OF_PERICENTER,MEAN_ANOMALY,EPHEMERIS_TYPE,CLASSIFICATION_TYPE,NORAD_CAT_ID,ELEMENT_SET_NO,REV_AT_EPOCH,BSTAR,MEAN_MOTION_DOT,MEAN_MOTION_DDOT
SWARM A,2013-067B,2026-07-17T16:02:42.510048,15.51487379,.0003335,87.3296,44.9058,92.5958,267.5685,0,U,39452,999,71097,.95413E-4,.5677E-4,0
SWARM C,2013-067C,2026-07-17T16:02:34.548288,15.51486640,.0003329,87.3296,43.4867,92.7113,267.4530,0,U,39453,999,71093,.9467E-4,.5633E-4,0
BRITE-CA1 (TORONTO),2014-033L,2026-07-16T22:23:37.947840,14.72724463,.0078575,97.9774,326.3188,180.6925,179.4187,0,U,40020,999,64659,.8359E-4,.506E-5,0
OCO 2,2014-035A,2026-07-17T15:28:06.487392,14.57133225,.000143,98.2020,139.4752,81.0934,279.0427,0,U,40059,999,64048,.45988E-4,.162E-5,0
BRITE-PL2 (HEWELIUSZ),2014-049B,2026-07-16T21:31:13.773216,14.94689258,.00141718,97.9120,310.1310,16.6624,343.5058,0,U,40119,999,64588,.50494606E-4,.489E-5,0
MMS 1,2015-011A,2026-07-17T18:00:02.998944,0.28341066,.8302385,72.4604,348.4245,168.1034,176.1164,0,U,40482,999,136,0,-.1318E-4,0
MMS 2,2015-011B,2026-07-17T18:00:02.998944,0.28341010,.8305198,72.4643,348.4235,168.1062,176.1034,0,U,40483,999,136,0,-.1319E-4,0
MMS 3,2015-011C,2026-07-17T18:00:02.998944,0.28341017,.8303566,72.4640,348.4353,168.1139,176.0774,0,U,40484,999,133,0,-.1318E-4,0
MMS 4,2015-011D,2026-07-17T18:00:02.998944,0.28340728,.8303495,72.4587,348.4189,168.1228,176.0786,0,U,40485,999,136,0,-.1319E-4,0
ASTROSAT,2015-052A,2026-07-17T15:11:42.332640,14.82553975,.0007406,5.9972,296.2026,111.4569,248.6349,0,U,40930,999,58435,.46524E-4,.1052E-4,0
DAMPE,2015-078A,2026-07-17T16:40:03.070272,15.30855988,.0011331,97.4559,204.3136,336.4456,23.6265,0,U,41173,999,58921,.15172E-4,.375E-5,0
PISAT,2016-059B,2026-07-17T10:55:06.822048,14.69031877,.0030507,97.8192,197.6092,107.9355,252.5181,0,U,41784,999,52418,.79783E-4,.424E-5,0
HXMT (HUIYAN),2017-034A,2026-07-17T17:15:37.374912,15.18700947,.0031985,43.0154,13.0008,336.5508,23.3881,0,U,42758,999,50230,.10499E-3,.1998E-4,0
FLYING LAPTOP,2017-042G,2026-07-17T17:06:22.578912,15.01323225,.0019601,97.4819,353.0993,24.4623,335.7527,0,U,42831,999,49103,.16558E-3,.2081E-4,0
ZHANGHENG 1-01 (CSES-1),2018-015C,2026-07-17T17:36:03.481632,15.20627192,.0016613,97.6897,5.0024,156.4639,203.7360,0,U,43194,999,46928,.1706E-3,.3681E-4,0
SALSAT,2020-068K,2026-07-16T23:14:24.421344,15.30186484,.0009384,97.8858,202.8562,186.4299,173.6821,0,U,46495,999,31991,.13663E-3,.3909E-4,0
IXPE,2021-121A,2026-07-17T18:00:02.998944,15.10500575,.0006762,0.2300,86.1062,180.9842,97.7010,0,U,49954,999,580,.26752E-3,.5458E-4,0
SMILE,2026-109A,2026-07-13T23:01:31.580256,0.47500629,.83137076,70.0512,206.6048,286.9544,0.1879,0,U,69123,999,6,0,.936E-5,0
